NORAD_CAT_ID,OBJECT_NAME,OBJECT_TYPE,EPOCH,MEAN_MOTION,ECCENTRICITY,INCLINATION,RA_OF_ASC_NODE,ARG_OF_PERICENTER,MEAN_ANOMALY,BSTAR,MEAN_MOTION_DOT,MEAN_MOTION_DDOT,TLE_LINE0,TLE_LINE1,TLE_LINE2,SEMIMAJOR_AXIS,PERIOD,APOGEE,PERIGEE,DECAYED
52987.0,STARLINK-4259,PAYLOAD,2024-01-02 14:49:55,15.08844401,0.0001731,53.2188,82.3104,66.4779,293.6395,0.00012846,1.757e-05,0.0,0 STARLINK-4259,1 52987U 22076B   24002.61800102  .00001757  00000-0  12846-3 0  9998,2 52987  53.2188  82.3104 0001731  66.4779 293.6395 15.08844401 82371,6917.867,95.437,540.929,538.534,0.0
52987.0,STARLINK-4259,PAYLOAD,2024-01-03 11:29:56,15.08837762,0.0001493,53.2182,78.4521,69.9756,290.1396,-1.8111e-05,-5.76e-06,0.0,0 STARLINK-4259,1 52987U 22076B   24003.47912956 -.00000576  00000-0 -18111-4 0  9996,2 52987  53.2182  78.4521 0001493  69.9756 290.1396 15.08837762 82973,6917.887,95.438,540.785,538.719,0.0
52987.0,STARLINK-4259,PAYLOAD,2024-01-04 09:45:20,15.08840524,0.0001331,53.2171,74.2877,80.6618,279.4524,-2.3068e-05,-6.55e-06,0.0,0 STARLINK-4259,1 52987U 22076B   24004.40648901 -.00000655  00000-0 -23068-4 0  9991,2 52987  53.2171  74.2877 0001331  80.6618 279.4524 15.08840524 82644,6917.879,95.438,540.665,538.823,0.0
52987.0,STARLINK-4259,PAYLOAD,2024-01-04 14:31:29,15.08845401,0.0001381,53.2169,73.393,103.9748,256.1398,1.6337e-05,-2.8e-07,0.0,0 STARLINK-4259,1 52987U 22076B   24004.60520313 -.00000028  00000-0  16337-4 0  9993,2 52987  53.2169  73.3930 0001381 103.9748 256.1398 15.08845401 83145,6917.864,95.437,540.684,538.774,0.0
52987.0,STARLINK-4259,PAYLOAD,2024-01-05 11:11:31,15.08835485,0.0001283,53.2167,69.5282,87.7913,272.3226,6.8132e-05,7.96e-06,0.0,0 STARLINK-4259,1 52987U 22076B   24005.46633195  .00000796  00000-0  68132-4 0  9992,2 52987  53.2167  69.5282 0001283  87.7913 272.3226 15.08835485 83279,6917.894,95.438,540.647,538.872,0.0
52987.0,STARLINK-4259,PAYLOAD,2024-01-05 14:22:17,15.08838146,0.0001288,53.2168,68.9323,96.3471,263.7668,7.9464e-05,9.77e-06,0.0,0 STARLINK-4259,1 52987U 22076B   24005.59880991  .00000977  00000-0  79464-4 0  9995,2 52987  53.2168  68.9323 0001288  96.3471 263.7668 15.08838146 82820,6917.886,95.438,540.642,538.86,0.0
52987.0,STARLINK-4259,PAYLOAD,2024-01-06 09:26:54,15.08838887,0.000125,53.2169,65.3647,97.2409,262.8725,0.00010531,1.388e-05,0.0,0 STARLINK-4259,1 52987U 22076B   24006.39369049  .00001388  00000-0  10531-3 0  9996,2 52987  53.2169  65.3647 0001250  97.2409 262.8725 15.08838887 82940,6917.884,95.438,540.614,538.884,0.0
52987.0,STARLINK-4259,PAYLOAD,2024-01-06 14:13:03,15.08844951,0.0001314,53.217,64.4715,104.4473,255.6665,0.00011218,1.498e-05,0.0,0 STARLINK-4259,1 52987U 22076B   24006.59240606  .00001498  00000-0  11218-3 0  9990,2 52987  53.2170  64.4715 0001314 104.4473 255.6665 15.08844951 83449,6917.865,95.437,540.639,538.821,0.0
52987.0,STARLINK-4259,PAYLOAD,2024-01-07 02:56:09,15.0883681,0.0001744,53.2184,62.0937,118.1762,241.9407,6.543e-05,7.53e-06,0.0,0 STARLINK-4259,1 52987U 22076B   24007.12233157  .00000753  00000-0  65430-4 0  9992,2 52987  53.2184  62.0937 0001744 118.1762 241.9407 15.08836810 83520,6917.89,95.438,540.962,538.549,0.0
52987.0,STARLINK-4259,PAYLOAD,2024-01-07 10:53:05,15.08840812,0.0001245,53.2169,60.6075,80.6311,279.4822,3.156e-05,2.14e-06,0.0,0 STARLINK-4259,1 52987U 22076B   24007.45353267  .00000214  00000-0  31560-4 0  9992,2 52987  53.2169  60.6075 0001245  80.6311 279.4822 15.08840812 83107,6917.878,95.438,540.604,538.882,0.0
52987.0,STARLINK-4259,PAYLOAD,2024-01-08 10:43:52,15.08844536,0.0001373,53.2174,56.1478,84.6063,275.5086,8.1683e-05,1.012e-05,0.0,0 STARLINK-4259,1 52987U 22076B   24008.44712980  .00001012  00000-0  81683-4 0  9991,2 52987  53.2174  56.1478 0001373  84.6063 275.5086 15.08844536 83724,6917.867,95.437,540.681,538.782,0.0
52987.0,STARLINK-4259,PAYLOAD,2024-01-09 12:10:02,15.08841912,0.0001706,53.2197,51.3823,77.7965,282.3218,0.00017966,2.573e-05,0.0,0 STARLINK-4259,1 52987U 22076B   24009.50697085  .00002573  00000-0  17966-3 0  9992,2 52987  53.2197  51.3823 0001706  77.7965 282.3218 15.08841912 83889,6917.875,95.437,540.92,538.559,0.0
52987.0,STARLINK-4259,PAYLOAD,2024-01-10 08:50:03,15.0884277,0.0001629,53.2181,47.5111,81.236,278.8816,1.547e-05,-4.2e-07,0.0,0 STARLINK-4259,1 52987U 22076B   24010.36809165 -.00000042  00000-0  15470-4 0  9991,2 52987  53.2181  47.5111 0001629  81.2360 278.8816 15.08842770 83542,6917.872,95.437,540.864,538.61,0.0
52987.0,STARLINK-4259,PAYLOAD,2024-01-11 11:51:35,15.08854107,0.0001885,53.2185,42.4653,119.8642,240.2538,6.6272e-05,7.67e-06,0.0,0 STARLINK-4259,1 52987U 22076B   24011.49416014  .00000767  00000-0  66272-4 0  9992,2 52987  53.2185  42.4653 0001885 119.8642 240.2538 15.08854107 84188,6917.837,95.437,541.006,538.398,0.0
52987.0,STARLINK-4259,PAYLOAD,2024-01-12 02:10:05,15.08831507,0.000154,53.2186,39.7926,93.9667,266.1501,-1.4533e-05,-5.19e-06,0.0,0 STARLINK-4259,1 52987U 22076B   24012.09033996 -.00000519  00000-0 -14533-4 0  9993,2 52987  53.2186  39.7926 0001540  93.9667 266.1501 15.08831507 84274,6917.906,95.438,540.837,538.706,0.0
52987.0,STARLINK-4259,PAYLOAD,2024-01-12 08:31:37,15.08834318,0.000174,53.2184,38.6018,106.4911,253.6272,1.2159e-05,-9.5e-07,0.0,0 STARLINK-4259,1 52987U 22076B   24012.35529823 -.00000095  00000-0  12159-4 0  9991,2 52987  53.2184  38.6018 0001740 106.4911 253.6272 15.08834318 83847,6917.898,95.438,540.966,538.559,0.0
52987.0,STARLINK-4259,PAYLOAD,2024-01-13 05:11:38,15.08839524,0.0001631,53.2185,34.7346,100.363,259.7546,-1.0329e-05,-4.52e-06,0.0,0 STARLINK-4259,1 52987U 22076B   24013.21641953 -.00000452  00000-0 -10329-4 0  9991,2 52987  53.2185  34.7346 0001631 100.3630 259.7546 15.08839524 84441,6917.882,95.438,540.875,538.619,0.0
52987.0,STARLINK-4259,PAYLOAD,2024-01-13 11:33:10,15.08844495,0.0001722,53.2187,33.5437,108.9454,251.1725,2.9104e-05,1.75e-06,0.0,0 STARLINK-4259,1 52987U 22076B   24013.48137526  .00000175  00000-0  29104-4 0  9997,2 52987  53.2187  33.5437 0001722 108.9454 251.1725 15.08844495 84011,6917.867,95.437,540.923,538.54,0.0
52987.0,STARLINK-4259,PAYLOAD,2024-01-14 11:23:58,15.08838663,0.0002043,53.2184,29.0812,107.9165,252.205,5.7164e-05,6.22e-06,0.0,0 STARLINK-4259,1 52987U 22076B   24014.47498171  .00000622  00000-0  57164-4 0  9997,2 52987  53.2184  29.0812 0002043 107.9165 252.2050 15.08838663 84631,6917.884,95.438,541.163,538.336,0.0
52987.0,STARLINK-4259,PAYLOAD,2024-01-15 09:39:21,15.08854841,0.0001724,53.2181,24.9179,85.3945,274.7244,0.00022923,3.363e-05,0.0,0 STARLINK-4259,1 52987U 22076B   24015.40233448  .00003363  00000-0  22923-3 0  9994,2 52987  53.2181  24.9179 0001724  85.3945 274.7244 15.08854841 84773,6917.835,95.437,540.893,538.507,0.0
52987.0,STARLINK-4259,PAYLOAD,2024-01-16 09:30:09,15.08836524,0.0001731,53.2181,20.4595,106.6747,253.4435,2.0408e-05,3.7e-07,0.0,0 STARLINK-4259,1 52987U 22076B   24016.39594448  .00000037  00000-0  20408-4 0  9995,2 52987  53.2181  20.4595 0001731 106.6747 253.4435 15.08836524 84922,6917.891,95.438,540.954,538.559,0.0
52987.0,STARLINK-4259,PAYLOAD,2024-01-17 06:10:10,15.08847668,0.0001912,53.2177,16.5997,81.1988,278.9221,0.0002478,3.659e-05,0.0,0 STARLINK-4259,1 52987U 22076B   24017.25706510  .00003659  00000-0  24780-3 0  9995,2 52987  53.2177  16.5997 0001912  81.1988 278.9221 15.08847668 84582,6917.857,95.437,541.045,538.399,0.0
52987.0,STARLINK-4259,PAYLOAD,2024-01-18 04:25:34,15.08842249,0.0001984,53.2189,12.438,79.5816,280.54,0.00018826,2.709e-05,0.0,0 STARLINK-4259,1 52987U 22076B   24018.18442871  .00002709  00000-0  18826-3 0  9994,2 52987  53.2189  12.4380 0001984  79.5816 280.5400 15.08842249 85192,6917.874,95.437,541.111,538.366,0.0
52987.0,STARLINK-4259,PAYLOAD,2024-01-18 09:11:43,15.08846649,0.0001765,53.2178,11.5398,98.7965,261.3227,0.00027112,4.03e-05,0.0,0 STARLINK-4259,1 52987U 22076B   24018.38314502  .00004030  00000-0  27112-3 0  9992,2 52987  53.2178  11.5398 0001765  98.7965 261.3227 15.08846649 84757,6917.86,95.437,540.946,538.504,0.0
52987.0,STARLINK-4259,PAYLOAD,2024-01-19 09:02:29,15.08858146,0.0001834,53.2168,7.0814,114.2724,245.846,0.00024883,3.676e-05,0.0,0 STARLINK-4259,1 52987U 22076B   24019.37673583  .00003676  00000-0  24883-3 0  9996,2 52987  53.2168   7.0814 0001834 114.2724 245.8460 15.08858146 85373,6917.825,95.436,540.959,538.421,0.0
52987.0,STARLINK-4259,PAYLOAD,2024-01-19 23:20:59,15.08839458,0.0001809,53.2176,4.3991,110.867,249.2516,8.0645e-05,9.96e-06,0.0,0 STARLINK-4259,1 52987U 22076B   24019.97290530  .00000996  00000-0  80645-4 0  9990,2 52987  53.2176   4.3991 0001809 110.8670 249.2516 15.08839458 84994,6917.882,95.438,540.998,538.496,0.0
52987.0,STARLINK-4259,PAYLOAD,2024-01-20 04:07:08,15.08845959,0.0001694,53.2169,3.5073,105.1873,254.9306,7.557e-05,9.15e-06,0.0,0 STARLINK-4259,1 52987U 22076B   24020.17162091  .00000915  00000-0  75570-4 0  9996,2 52987  53.2169   3.5073 0001694 105.1873 254.9306 15.08845959 85491,6917.862,95.437,540.899,538.555,0.0
52987.0,STARLINK-4259,PAYLOAD,2024-01-20 05:42:31,15.08844459,0.0001778,53.2174,3.2116,112.6705,247.4475,0.00015497,2.179e-05,0.0,0 STARLINK-4259,1 52987U 22076B   24020.23786284  .00002179  00000-0  15497-3 0  9994,2 52987  53.2174   3.2116 0001778 112.6705 247.4475 15.08844459 85030,6917.867,95.437,540.962,538.502,0.0
52987.0,STARLINK-4259,PAYLOAD,2024-01-20 23:11:46,15.08838282,0.000179,53.217,359.942,116.9396,243.1779,-3.4878e-05,-8.43e-06,0.0,0 STARLINK-4259,1 52987U 22076B   24020.96650685 -.00000843  00000-0 -34878-4 0  9992,2 52987  53.2170 359.9420 0001790 116.9396 243.1779 15.08838282 85141,6917.886,95.438,540.989,538.512,0.0
52987.0,STARLINK-4259,PAYLOAD,2024-01-21 03:57:55,15.08841103,0.0001722,53.217,359.0522,112.4587,247.6587,1.402e-05,-6.5e-07,0.0,0 STARLINK-4259,1 52987U 22076B   24021.16522591 -.00000065  00000-0  14020-4 0  9991,2 52987  53.2170 359.0522 0001722 112.4587 247.6587 15.08841103 85640,6917.877,95.437,540.933,538.551,0.0
